[{"OBJECT_NAME":"STARLINK-32960","OBJECT_ID":"2025-048Q","EPOCH":"2026-03-09T01:23:28.749696","MEAN_MOTION":15.27593541,"ECCENTRICITY":0.00018214,"INCLINATION":43.0007,"RA_OF_ASC_NODE":89.0472,"ARG_OF_PERICENTER":278.7007,"MEAN_ANOMALY":81.3638,"EPHEMERIS_TYPE":0,"CLASSIFICATION_TYPE":"U","NORAD_CAT_ID":63197,"ELEMENT_SET_NO":999,"REV_AT_EPOCH":5699,"BSTAR":0.0010865891,"MEAN_MOTION_DOT":0.00029772,"MEAN_MOTION_DDOT":0},{"OBJECT_NAME":"COSMOS 2535 DEB","OBJECT_ID":"2019-039M","EPOCH":"2026-03-08T03:25:35.903424","MEAN_MOTION":15.28322551,"ECCENTRICITY":0.0014917,"INCLINATION":97.5619,"RA_OF_ASC_NODE":139.2722,"ARG_OF_PERICENTER":329.0964,"MEAN_ANOMALY":30.9396,"EPHEMERIS_TYPE":0,"CLASSIFICATION_TYPE":"U","NORAD_CAT_ID":44641,"ELEMENT_SET_NO":999,"REV_AT_EPOCH":35167,"BSTAR":0.0011539757,"MEAN_MOTION_DOT":0.0003196,"MEAN_MOTION_DDOT":0}]
